STARLINK-32767          
1 62601U 25008Q   26068.01975586  .00029647  00000+0  10824-2 0  9997
2 62601  43.0024 281.5558 0001250 271.8016  88.2692 15.27585145 65523
REAL                    
1 64875U 25154G   26068.72233414  .00022901  00000+0  82904-3 0  9994
2 64875  97.4133 137.2581 0001853 118.5876 241.5550 15.28408058 34830
