[{"OBJECT_NAME":"STARLINK-32767","OBJECT_ID":"2025-008Q","EPOCH":"2026-03-09T00:28:26.906304","MEAN_MOTION":15.27585145,"ECCENTRICITY":0.00012508,"INCLINATION":43.0024,"RA_OF_ASC_NODE":281.5558,"ARG_OF_PERICENTER":271.8016,"MEAN_ANOMALY":88.2692,"EPHEMERIS_TYPE":0,"CLASSIFICATION_TYPE":"U","NORAD_CAT_ID":62601,"ELEMENT_SET_NO":999,"REV_AT_EPOCH":6552,"BSTAR":0.0010823646,"MEAN_MOTION_DOT":0.00029647,"MEAN_MOTION_DDOT":0},{"OBJECT_NAME":"REAL","OBJECT_ID":"2025-154G","EPOCH":"2026-03-09T17:20:09.670560","MEAN_MOTION":15.28408058,"ECCENTRICITY":0.00018528,"INCLINATION":97.4133,"RA_OF_ASC_NODE":137.2581,"ARG_OF_PERICENTER":118.5876,"MEAN_ANOMALY":241.555,"EPHEMERIS_TYPE":0,"CLASSIFICATION_TYPE":"U","NORAD_CAT_ID":64875,"ELEMENT_SET_NO":999,"REV_AT_EPOCH":3483,"BSTAR":0.0008290401,"MEAN_MOTION_DOT":0.00022901,"MEAN_MOTION_DDOT":0}]
